[{"OBJECT_NAME":"O3B FM17","OBJECT_ID":"2019-020C","EPOCH":"2026-04-25T08:21:22.281984","MEAN_MOTION":5.00115482,"ECCENTRICITY":0.00026093,"INCLINATION":0.0342,"RA_OF_ASC_NODE":354.8678,"ARG_OF_PERICENTER":36.6567,"MEAN_ANOMALY":328.4893,"EPHEMERIS_TYPE":0,"CLASSIFICATION_TYPE":"U","NORAD_CAT_ID":44114,"ELEMENT_SET_NO":999,"REV_AT_EPOCH":12888,"BSTAR":0,"MEAN_MOTION_DOT":-2.7e-7,"MEAN_MOTION_DDOT":0},{"OBJECT_NAME":"O3B FM18","OBJECT_ID":"2019-020D","EPOCH":"2026-04-25T16:39:44.732736","MEAN_MOTION":5.00115236,"ECCENTRICITY":0.00027337,"INCLINATION":0.0537,"RA_OF_ASC_NODE":1.515,"ARG_OF_PERICENTER":34.2778,"MEAN_ANOMALY":324.2238,"EPHEMERIS_TYPE":0,"CLASSIFICATION_TYPE":"U","NORAD_CAT_ID":44115,"ELEMENT_SET_NO":999,"REV_AT_EPOCH":12902,"BSTAR":0,"MEAN_MOTION_DOT":-2.7e-7,"MEAN_MOTION_DDOT":0},{"OBJECT_NAME":"SES-17","OBJECT_ID":"2021-095A","EPOCH":"2026-04-25T21:50:53.909088","MEAN_MOTION":1.00269484,"ECCENTRICITY":0.00010417,"INCLINATION":0.0254,"RA_OF_ASC_NODE":55.2077,"ARG_OF_PERICENTER":335.757,"MEAN_ANOMALY":83.5715,"EPHEMERIS_TYPE":0,"CLASSIFICATION_TYPE":"U","NORAD_CAT_ID":49332,"ELEMENT_SET_NO":999,"REV_AT_EPOCH":1733,"BSTAR":0,"MEAN_MOTION_DOT":-2.86e-6,"MEAN_MOTION_DDOT":0},{"OBJECT_NAME":"SES-22","OBJECT_ID":"2022-071A","EPOCH":"2026-04-25T15:17:38.592672","MEAN_MOTION":1.00273258,"ECCENTRICITY":9.254e-5,"INCLINATION":0.0059,"RA_OF_ASC_NODE":58.7892,"ARG_OF_PERICENTER":330.742,"MEAN_ANOMALY":274.5158,"EPHEMERIS_TYPE":0,"CLASSIFICATION_TYPE":"U","NORAD_CAT_ID":52933,"ELEMENT_SET_NO":999,"REV_AT_EPOCH":699,"BSTAR":0,"MEAN_MOTION_DOT":9.0e-7,"MEAN_MOTION_DDOT":0},{"OBJECT_NAME":"SES-20","OBJECT_ID":"2022-123A","EPOCH":"2026-04-25T21:40:32.401920","MEAN_MOTION":1.00269407,"ECCENTRICITY":0.0001817,"INCLINATION":0.0232,"RA_OF_ASC_NODE":102.8831,"ARG_OF_PERICENTER":326.4233,"MEAN_ANOMALY":6.6513,"EPHEMERIS_TYPE":0,"CLASSIFICATION_TYPE":"U","NORAD_CAT_ID":53960,"ELEMENT_SET_NO":999,"REV_AT_EPOCH":1300,"BSTAR":0,"MEAN_MOTION_DOT":0,"MEAN_MOTION_DDOT":0},{"OBJECT_NAME":"SES-21","OBJECT_ID":"2022-123B","EPOCH":"2026-04-24T23:17:51.345888","MEAN_MOTION":1.002723,"ECCENTRICITY":0.00013171,"INCLINATION":0.0251,"RA_OF_ASC_NODE":64.6447,"ARG_OF_PERICENTER":318.316,"MEAN_ANOMALY":48.525,"EPHEMERIS_TYPE":0,"CLASSIFICATION_TYPE":"U","NORAD_CAT_ID":53961,"ELEMENT_SET_NO":999,"REV_AT_EPOCH":667,"BSTAR":0,"MEAN_MOTION_DOT":5.5e-7,"MEAN_MOTION_DDOT":0},{"OBJECT_NAME":"O3B MPOWER F1","OBJECT_ID":"2022-174A","EPOCH":"2026-04-25T15:40:17.185152","MEAN_MOTION":5.00114823,"ECCENTRICITY":0.00059686,"INCLINATION":0.0598,"RA_OF_ASC_NODE":347.399,"ARG_OF_PERICENTER":66.0147,"MEAN_ANOMALY":92.0009,"EPHEMERIS_TYPE":0,"CLASSIFICATION_TYPE":"U","NORAD_CAT_ID":54755,"ELEMENT_SET_NO":999,"REV_AT_EPOCH":6273,"BSTAR":0,"MEAN_MOTION_DOT":-2.7e-7,"MEAN_MOTION_DDOT":0},{"OBJECT_NAME":"O3B MPOWER F2","OBJECT_ID":"2022-174B","EPOCH":"2026-04-25T12:55:59.041056","MEAN_MOTION":5.00115368,"ECCENTRICITY":0.00059376,"INCLINATION":0.0564,"RA_OF_ASC_NODE":345.0501,"ARG_OF_PERICENTER":47.5246,"MEAN_ANOMALY":327.4601,"EPHEMERIS_TYPE":0,"CLASSIFICATION_TYPE":"U","NORAD_CAT_ID":54756,"ELEMENT_SET_NO":999,"REV_AT_EPOCH":6280,"BSTAR":0,"MEAN_MOTION_DOT":-2.7e-7,"MEAN_MOTION_DDOT":0},{"OBJECT_NAME":"SES-18","OBJECT_ID":"2023-038A","EPOCH":"2026-04-25T14:25:04.276416","MEAN_MOTION":1.00271301,"ECCENTRICITY":0.00014963,"INCLINATION":0.0187,"RA_OF_ASC_NODE":258.1103,"ARG_OF_PERICENTER":71.2169,"MEAN_ANOMALY":357.4473,"EPHEMERIS_TYPE":0,"CLASSIFICATION_TYPE":"U","NORAD_CAT_ID":55970,"ELEMENT_SET_NO":999,"REV_AT_EPOCH":1157,"BSTAR":0,"MEAN_MOTION_DOT":-1.15e-6,"MEAN_MOTION_DDOT":0},{"OBJECT_NAME":"SES-19","OBJECT_ID":"2023-038B","EPOCH":"2026-04-25T16:23:30.608160","MEAN_MOTION":1.00273486,"ECCENTRICITY":0.00016842,"INCLINATION":0.0246,"RA_OF_ASC_NODE":283.8124,"ARG_OF_PERICENTER":104.3069,"MEAN_ANOMALY":296.5575,"EPHEMERIS_TYPE":0,"CLASSIFICATION_TYPE":"U","NORAD_CAT_ID":55971,"ELEMENT_SET_NO":999,"REV_AT_EPOCH":1156,"BSTAR":0,"MEAN_MOTION_DOT":7.4e-7,"MEAN_MOTION_DDOT":0},{"OBJECT_NAME":"O3B MPOWER F4","OBJECT_ID":"2023-059A","EPOCH":"2026-04-25T19:16:26.507712","MEAN_MOTION":5.00115881,"ECCENTRICITY":0.00072509,"INCLINATION":0.0649,"RA_OF_ASC_NODE":2.6449,"ARG_OF_PERICENTER":44.1224,"MEAN_ANOMALY":313.2915,"EPHEMERIS_TYPE":0,"CLASSIFICATION_TYPE":"U","NORAD_CAT_ID":56367,"ELEMENT_SET_NO":999,"REV_AT_EPOCH":5597,"BSTAR":0,"MEAN_MOTION_DOT":-2.7e-7,"MEAN_MOTION_DDOT":0},{"OBJECT_NAME":"O3B MPOWER F3","OBJECT_ID":"2023-059B","EPOCH":"2026-04-25T20:04:21.119520","MEAN_MOTION":5.00116608,"ECCENTRICITY":0.00066487,"INCLINATION":0.066,"RA_OF_ASC_NODE":2.388,"ARG_OF_PERICENTER":34.6963,"MEAN_ANOMALY":322.9599,"EPHEMERIS_TYPE":0,"CLASSIFICATION_TYPE":"U","NORAD_CAT_ID":56368,"ELEMENT_SET_NO":999,"REV_AT_EPOCH":5211,"BSTAR":0,"MEAN_MOTION_DOT":-2.7e-7,"MEAN_MOTION_DDOT":0},{"OBJECT_NAME":"O3B MPOWER F5","OBJECT_ID":"2023-175A","EPOCH":"2026-04-25T17:41:32.928288","MEAN_MOTION":5.00115556,"ECCENTRICITY":0.00044687,"INCLINATION":0.0447,"RA_OF_ASC_NODE":11.7939,"ARG_OF_PERICENTER":35.0713,"MEAN_ANOMALY":313.1704,"EPHEMERIS_TYPE":0,"CLASSIFICATION_TYPE":"U","NORAD_CAT_ID":58346,"ELEMENT_SET_NO":999,"REV_AT_EPOCH":4681,"BSTAR":0,"MEAN_MOTION_DOT":-2.7e-7,"MEAN_MOTION_DDOT":0},{"OBJECT_NAME":"O3B MPOWER F6","OBJECT_ID":"2023-175B","EPOCH":"2026-04-25T20:06:30.627936","MEAN_MOTION":5.00116222,"ECCENTRICITY":0.0004729,"INCLINATION":0.0513,"RA_OF_ASC_NODE":6.1734,"ARG_OF_PERICENTER":18.9973,"MEAN_ANOMALY":334.8506,"EPHEMERIS_TYPE":0,"CLASSIFICATION_TYPE":"U","NORAD_CAT_ID":58347,"ELEMENT_SET_NO":999,"REV_AT_EPOCH":4573,"BSTAR":0,"MEAN_MOTION_DOT":-2.7e-7,"MEAN_MOTION_DDOT":0},{"OBJECT_NAME":"ASTRA 1P (SES-24)","OBJECT_ID":"2024-115A","EPOCH":"2026-04-24T06:53:54.671712","MEAN_MOTION":1.00262578,"ECCENTRICITY":0.00037434,"INCLINATION":0.0784,"RA_OF_ASC_NODE":43.1438,"ARG_OF_PERICENTER":261.415,"MEAN_ANOMALY":30.4242,"EPHEMERIS_TYPE":0,"CLASSIFICATION_TYPE":"U","NORAD_CAT_ID":60086,"ELEMENT_SET_NO":999,"REV_AT_EPOCH":665,"BSTAR":0,"MEAN_MOTION_DOT":1.05e-6,"MEAN_MOTION_DDOT":0},{"OBJECT_NAME":"O3B MPOWER F7","OBJECT_ID":"2024-244A","EPOCH":"2026-04-25T12:06:15.794208","MEAN_MOTION":5.00115165,"ECCENTRICITY":0.00060744,"INCLINATION":0.0717,"RA_OF_ASC_NODE":358.2528,"ARG_OF_PERICENTER":33.8541,"MEAN_ANOMALY":327.9284,"EPHEMERIS_TYPE":0,"CLASSIFICATION_TYPE":"U","NORAD_CAT_ID":62362,"ELEMENT_SET_NO":999,"REV_AT_EPOCH":2389,"BSTAR":0,"MEAN_MOTION_DOT":-2.7e-7,"MEAN_MOTION_DDOT":0},{"OBJECT_NAME":"O3B MPOWER F8","OBJECT_ID":"2024-244B","EPOCH":"2026-04-25T16:06:30.241440","MEAN_MOTION":5.0011544,"ECCENTRICITY":0.00062981,"INCLINATION":0.0331,"RA_OF_ASC_NODE":314.8884,"ARG_OF_PERICENTER":70.6497,"MEAN_ANOMALY":334.4912,"EPHEMERIS_TYPE":0,"CLASSIFICATION_TYPE":"U","NORAD_CAT_ID":62363,"ELEMENT_SET_NO":999,"REV_AT_EPOCH":1824,"BSTAR":0,"MEAN_MOTION_DOT":-2.7e-7,"MEAN_MOTION_DDOT":0}]
